ONEWEB-0431             
1 51630U 22012J   23350.66848378 -.00000570  00000+0 -16703-2 0  9997
2 51630  87.8907 217.7123 0001935  99.6046 260.5300 13.10371820 89707
ONEWEB-0434             
1 51631U 22012K   23350.72225048  .00000005  00000+0 -23136-4 0  9990
2 51631  87.8910 217.7040 0001213  87.6721 272.4545 13.10368787 89695
ONEWEB-0435             
1 51632U 22012L   23351.11215928 -.00000222  00000+0 -67229-3 0  9993
2 51632  87.8912 217.6168 0001240  99.0007 261.1261 13.10371384 91018
ONEWEB-0436             
1 51633U 22012M   23351.08042995 -.00002612  00000+0 -67668-2 0  9993
2 51633  87.9194 187.3951 0001482  99.5204 260.6095 13.17613443 94729
ONEWEB-0438             
1 51634U 22012N   23350.71413006  .00000528  00000+0  14772-2 0  9998
2 51634  87.8912 217.6963 0001326  76.0124 284.1151 13.10372209 89717
ONEWEB-0439             
1 51635U 22012P   23351.09918546  .00000940  00000+0  26578-2 0  9995
2 51635  87.8912 217.6037 0001436  86.2268 273.9023 13.10369167 91024
ONEWEB-0442             
1 51636U 22012Q   23351.07210004 -.00009020  00000+0 -23323-1 0  9992
2 51636  87.9197 187.4265 0002373  68.8591 291.2794 13.17545321 94716
ONEWEB-0443             
1 51637U 22012R   23351.09108020 -.00008700  00000+0 -22495-1 0  9992
2 51637  87.9213 187.4256 0001192  97.1984 262.9283 13.17548215 94763
ONEWEB-0444             
1 51638U 22012S   23351.16578706  .00000632  00000+0  17749-2 0  9994
2 51638  87.8917 217.6193 0001258  87.6129 272.5142 13.10374331 91057
ONEWEB-0445             
1 51639U 22012T   23350.65240919  .00000513  00000+0  14327-2 0  9997
2 51639  87.8903 217.7033 0001780  70.1169 290.0150 13.10370915 89705
ONEWEB-0446             
1 51640U 22012U   23351.16415787  .00000671  00000+0  18852-2 0  9995
2 51640  87.8912 217.6101 0001721  80.3928 279.7394 13.10373926 91053
ONEWEB-0448             
1 51641U 22012V   23350.71089866  .00000793  00000+0  22342-2 0  9995
2 51641  87.8912 217.7010 0001251  84.5946 275.5324 13.10370343 89669
ONEWEB-0449             
1 51642U 22012W   23351.09754790  .00000514  00000+0  14369-2 0  9994
2 51642  87.8914 217.6294 0001408  71.3454 288.7826 13.10370324 91022
ONEWEB-0451             
1 51643U 22012X   23350.92419885  .00002864  00000+0  73367-2 0  9992
2 51643  87.9198 187.4258 0001276  84.5928 275.5349 13.17681609 93391
ONEWEB-0452             
1 51644U 22012Y   23350.92221854 -.00002946  00000+0 -76276-2 0  9995
2 51644  87.9203 187.4545 0001209  67.1242 293.0017 13.17612879 93402
ONEWEB-0455             
1 51645U 22012Z   23351.03794567  .00000310  00000+0  13057-3 0  9995
2 51645  87.5347 169.4290 0015778 214.7004 145.3159 14.22665889 97548
ONEWEB-0456             
1 51646U 22012AA  23350.72551941  .00000543  00000+0  15183-2 0  9997
2 51646  87.8903 217.6814 0001542  91.9136 268.2167 13.10369863 89716
ONEWEB-0457             
1 51647U 22012AB  23351.16091667  .00000663  00000+0  18634-2 0  9998
2 51647  87.8913 217.6015 0001578  66.4065 293.7227 13.10374969 91073
ONEWEB-0458             
1 51648U 22012AC  23351.10566312  .00000178  00000+0  47305-3 0  9996
2 51648  87.8913 217.6256 0001275  75.4806 284.6462 13.10368386 91029
ONEWEB-0461             
1 51649U 22012AD  23351.09542697 -.00013539  00000+0 -35038-1 0  9990
2 51649  87.9204 187.3976 0001761  66.2585 293.8731 13.17487968 94937
ONEWEB-0463             
1 51650U 22012AE  23351.07843950 -.00008457  00000+0 -21869-1 0  9996
2 51650  87.9206 187.4394 0002070  65.6490 294.4857 13.17546667 94723
ONEWEB-0464             
1 51651U 22012AF  23351.10240989  .00000249  00000+0  67701-3 0  9990
2 51651  87.8910 217.6154 0001354 101.7051 258.4228 13.10372093 91041
ONEWEB-0468             
1 51652U 22012AG  23351.10891573 -.00000219  00000+0 -66495-3 0  9990
2 51652  87.8914 217.6062 0001292  77.5243 282.6029 13.10375336 91016
ONEWEB-0473             
1 51653U 22012AH  23351.09429096  .00000616  00000+0  17290-2 0  9993
2 51653  87.8912 217.6136 0001267  84.5526 275.5746 13.10373555 91020
ONEWEB-0474             
1 51654U 22012AJ  23350.70439740  .00000687  00000+0  19310-2 0  9991
2 51654  87.8905 217.7045 0001199  89.4587 270.6678 13.10371290 89669
ONEWEB-0475             
1 51655U 22012AK  23350.93720388 -.00013416  00000+0 -34720-1 0  9995
2 51655  87.9232 187.4477 0001485 107.2551 252.8743 13.17486863 93428
EOS-4                   
1 51656U 22013A   23351.12819645  .00002213  00000+0  13007-3 0  9992
2 51656  97.5155 355.5656 0001958  98.8416 261.3037 15.12716980101454
INSPIRESAT-1            
1 51657U 22013B   23350.93573776  .00005879  00000+0  26505-3 0  9991
2 51657  97.5420   2.0273 0011599  91.4473 268.8091 15.21362544101661
INS-2TD                 
1 51658U 22013C   23350.98936824  .00019060  00000+0  64944-3 0  9990
2 51658  97.5379   4.8906 0009980  83.6588 276.5789 15.30382485101867
STARLINK-3528           
1 51714U 22016A   23350.39144340  .00000166  00000+0  28533-4 0  9997
2 51714  53.2189  24.6476 0001713 103.9595 256.1588 15.08838065100494
STARLINK-3533           
1 51715U 22016B   23350.97752744  .00000710  00000+0  62737-4 0  9994
2 51715  53.2186  22.0338 0001594  95.2933 264.8241 15.08835332101719
STARLINK-3543           
1 51716U 22016C   23350.38776353  .00000797  00000+0  68192-4 0  9998
2 51716  53.2191  24.6688 0001759 110.2608 249.8573 15.08839180100492
STARLINK-3445           
1 51717U 22016D   23350.39241459 -.00001648  00000+0 -85478-4 0  9998
2 51717  53.2187  24.7277 0001569  92.1579 267.9593 15.08847567100498
STARLINK-3546           
1 51718U 22016E   23350.36936823 -.00000186  00000+0  64204-5 0  9992
2 51718  53.2186  24.7543 0001728  70.2976 289.8202 15.08839101101619
STARLINK-3540           
1 51719U 22016F   23350.31785513 -.00000471  00000+0 -11509-4 0  9993
2 51719  53.2190  25.0587 0001839 117.6218 242.4961 15.08839323100482
STARLINK-3526           
1 51720U 22016G   23350.42920250  .00001465  00000+0  11010-3 0  9994
2 51720  53.2186  24.4563 0001823  65.6196 294.4986 15.08840183100497
STARLINK-3524           
1 51721U 22016H   23350.37400777  .00000623  00000+0  57243-4 0  9990
2 51721  53.2178  24.7440 0001729  66.7036 293.4138 15.08832906100498
STARLINK-3535           
1 51722U 22016J   23350.42456751  .00000277  00000+0  35521-4 0  9990
2 51722  53.2180  24.5072 0001463  86.1423 273.9737 15.08840591100499
STARLINK-3531           
1 51723U 22016K   23350.91667824 -.00029444  00000+0 -95224-4 0  9995
2 51723  53.1636  72.6064 0003000  24.7633 208.6895 15.89646058  6003
STARLINK-3529           
1 51724U 22016L   23350.41720877  .00000294  00000+0  36565-4 0  9992
2 51724  53.2192  24.5334 0001640  82.6047 277.5131 15.08835669100493
STARLINK-3522           
1 51725U 22016M   23350.36201184 -.00000412  00000+0 -77874-5 0  9995
2 51725  53.2194  24.7798 0001836  70.0117 290.1073 15.08837109100484
STARLINK-3527           
1 51726U 22016N   23350.39237292  .00004737  00000+0  31572-3 0  9993
2 51726  53.2190  14.6465 0001707  69.0863 291.0311 15.08818669100635
STARLINK-3532           
1 51727U 22016P   23350.42089671  .00007361  00000+0  48064-3 0  9994
2 51727  53.2190  24.5197 0001915  68.6281 291.4915 15.08800387100494
STARLINK-3448           
1 51728U 22016Q   23350.38500741  .00000200  00000+0  30644-4 0  9997
2 51728  53.2185  14.6775 0001432  87.1435 272.9721 15.08839891100639
STARLINK-3523           
1 51729U 22016R   23350.92597237  .00000679  00000+0  60774-4 0  9991
2 51729  53.2182  12.2584 0001694  72.1427 287.9749 15.08834623101842
STARLINK-3530           
1 51730U 22016S   23350.31140826  .00002091  00000+0  14948-3 0  9995
2 51730  53.2182  15.0090 0001390 101.9474 258.1674 15.08823597100623
STARLINK-3514           
1 51731U 22016T   23350.98485026  .00000973  00000+0  79223-4 0  9998
2 51731  53.2179  11.9852 0001417  89.3358 270.7797 15.08835382101836
STARLINK-3518           
1 51732U 22016U   23350.37397305 -.00000617  00000+0 -20643-4 0  9993
2 51732  53.2180  14.7256 0001806 115.2210 244.8969 15.08829180101771
STARLINK-3525           
1 51733U 22016V   23350.38228551  .00001334  00000+0  10191-3 0  9992
2 51733  53.2182  14.7015 0001437  96.5213 263.5943 15.08838195100631
STARLINK-3450           
1 51734U 22016W   23350.95909028  .00002312  00000+0  16334-3 0  9993
2 51734  53.2178  12.1025 0001743 114.7031 245.4142 15.08831094101824
STARLINK-3517           
1 51735U 22016X   23350.37029164 -.00000175  00000+0  71143-5 0  9991
2 51735  53.2188  14.7424 0001734 109.6092 250.5088 15.08831635100632
STARLINK-3447           
1 51736U 22016Y   23350.96005502  .00000635  00000+0  58020-4 0  9995
2 51736  53.2198  12.1911 0001934 121.1054 239.0128 15.08835527101841
STARLINK-3509           
1 51737U 22016Z   23350.36661000 -.00000618  00000+0 -20746-4 0  9998
2 51737  53.2188  14.7630 0001617 107.8377 252.2792 15.08833072100626
STARLINK-3515           
1 51738U 22016AA  23350.34819472  .00001304  00000+0  99981-4 0  9993
2 51738  53.2179  14.8456 0001559  91.4589 268.6581 15.08847486100623
STARLINK-3516           
1 51739U 22016AB  23350.35925040 -.00000853  00000+0 -35500-4 0  9991
2 51739  53.2194  14.7929 0001685 106.7047 253.4130 15.08832661100625
STARLINK-3500           
1 51740U 22016AC  23350.34084608 -.00000172  00000+0  72650-5 0  9999
2 51740  53.2177  14.8859 0001729  71.9687 288.1494 15.08843711100629
STARLINK-3520           
1 51741U 22016AD  23350.35285153  .00000289  00000+0  36284-4 0  9999
2 51741  53.2165  14.8336 0001602  88.0864 272.0311 15.08832327101737
STARLINK-3521           
1 51742U 22016AE  23350.35558865  .00000346  00000+0  39845-4 0  9993
2 51742  53.2180  15.0063 0001682 107.0753 253.0423 15.08837732100627
STARLINK-3512           
1 51743U 22016AF  23350.35648259 -.00000263  00000+0  15647-5 0  9995
2 51743  53.2188   4.7271 0001475  77.9425 282.1732 15.08834108100768
